{
  "type": "FeatureCollection",
  "features": [
    {
      "type": "Feature",
      "properties": {
        "norad_id": 34141,
        "name": "COSMOS 2251 DEB",
        "group": "cosmos-2251-debris",
        "lat": -35.154206074528986,
        "lon": -151.64084478792088,
        "alt_km": 748.1947108168115,
        "timestamp": "2025-12-19T04:59:48.700628+00:00",
        "meta_object_name": "COSMOS 2251 DEB",
        "meta_object_id": "1993-036LN",
        "meta_epoch": "2025-12-18T12:07:32.845728",
        "meta_mean_motion": 14.49299004,
        "meta_eccentricity": 0.00467087,
        "meta_inclination": 74.011,
        "meta_ra_of_asc_node": 18.03,
        "meta_arg_of_pericenter": 102.3034,
        "meta_mean_anomaly": 47.712,
        "meta_ephemeris_type": 0,
        "meta_classification_type": "U",
        "meta_norad_cat_id": 34141,
        "meta_element_set_no": 999,
        "meta_rev_at_epoch": 87777,
        "meta_bstar": 0.0010815498,
        "meta_mean_motion_dot": 4.159e-05,
        "meta_mean_motion_ddot": 0,
        "tle_line1": "1 34141U 93036LN  25352.50524127  .00004159  00000+0  10815-2 0  9992",
        "tle_line2": "2 34141  74.0110  18.0300 0046708 102.3034  47.7120 14.49299004877777"
      },
      "geometry": {
        "type": "Point",
        "coordinates": [
          -151.64084478792088,
          -35.154206074528986
        ]
      }
    },
    {
      "type": "Feature",
      "properties": {
        "norad_id": 34270,
        "name": "COSMOS 2251 DEB",
        "group": "cosmos-2251-debris",
        "lat": -3.5444732788888396,
        "lon": 115.17933837617686,
        "alt_km": 684.3094533178491,
        "timestamp": "2025-12-19T04:59:48.700638+00:00",
        "meta_object_name": "COSMOS 2251 DEB",
        "meta_object_id": "1993-036LQ",
        "meta_epoch": "2025-12-18T23:15:02.857248",
        "meta_mean_motion": 14.65216438,
        "meta_eccentricity": 0.00478308,
        "meta_inclination": 74.0115,
        "meta_ra_of_asc_node": 294.6229,
        "meta_arg_of_pericenter": 85.5775,
        "meta_mean_anomaly": 275.0856,
        "meta_ephemeris_type": 0,
        "meta_classification_type": "U",
        "meta_norad_cat_id": 34270,
        "meta_element_set_no": 999,
        "meta_rev_at_epoch": 89187,
        "meta_bstar": 0.0005596183,
        "meta_mean_motion_dot": 3.034e-05,
        "meta_mean_motion_ddot": 0,
        "tle_line1": "1 34270U 93036LQ  25352.96878307  .00003034  00000+0  55962-3 0  9991",
        "tle_line2": "2 34270  74.0115 294.6229 0047830  85.5775 275.0856 14.65216438891875"
      },
      "geometry": {
        "type": "Point",
        "coordinates": [
          115.17933837617686,
          -3.5444732788888396
        ]
      }
    },
    {
      "type": "Feature",
      "properties": {
        "norad_id": 34271,
        "name": "COSMOS 2251 DEB",
        "group": "cosmos-2251-debris",
        "lat": -71.31207549516347,
        "lon": 64.67050973593233,
        "alt_km": 652.9227178400724,
        "timestamp": "2025-12-19T04:59:48.700648+00:00",
        "meta_object_name": "COSMOS 2251 DEB",
        "meta_object_id": "1993-036LR",
        "meta_epoch": "2025-12-18T23:38:11.090112",
        "meta_mean_motion": 14.70888158,
        "meta_eccentricity": 0.00184979,
        "meta_inclination": 74.0192,
        "meta_ra_of_asc_node": 187.1923,
        "meta_arg_of_pericenter": 240.7026,
        "meta_mean_anomaly": 277.1993,
        "meta_ephemeris_type": 0,
        "meta_classification_type": "U",
        "meta_norad_cat_id": 34271,
        "meta_element_set_no": 999,
        "meta_rev_at_epoch": 88326,
        "meta_bstar": 0.0014472167,
        "meta_mean_motion_dot": 8.86e-05,
        "meta_mean_motion_ddot": 0,
        "tle_line1": "1 34271U 93036LR  25352.98485058  .00008860  00000+0  14472-2 0  9993",
        "tle_line2": "2 34271  74.0192 187.1923 0018497 240.7026 277.1993 14.70888158883268"
      },
      "geometry": {
        "type": "Point",
        "coordinates": [
          64.67050973593233,
          -71.31207549516347
        ]
      }
    },
    {
      "type": "Feature",
      "properties": {
        "norad_id": 34273,
        "name": "COSMOS 2251 DEB",
        "group": "cosmos-2251-debris",
        "lat": 53.49300912896747,
        "lon": 97.81195243818817,
        "alt_km": 691.5470152286207,
        "timestamp": "2025-12-19T04:59:48.700658+00:00",
        "meta_object_name": "COSMOS 2251 DEB",
        "meta_object_id": "1993-036LT",
        "meta_epoch": "2025-12-18T16:16:45.689376",
        "meta_mean_motion": 14.61278636,
        "meta_eccentricity": 0.00138012,
        "meta_inclination": 74.0365,
        "meta_ra_of_asc_node": 76.0729,
        "meta_arg_of_pericenter": 201.9734,
        "meta_mean_anomaly": 308.4768,
        "meta_ephemeris_type": 0,
        "meta_classification_type": "U",
        "meta_norad_cat_id": 34273,
        "meta_element_set_no": 999,
        "meta_rev_at_epoch": 88708,
        "meta_bstar": 0.00068595035,
        "meta_mean_motion_dot": 3.361e-05,
        "meta_mean_motion_ddot": 0,
        "tle_line1": "1 34273U 93036LT  25352.67830659  .00003361  00000+0  68595-3 0  9999",
        "tle_line2": "2 34273  74.0365  76.0729 0013801 201.9734 308.4768 14.61278636887087"
      },
      "geometry": {
        "type": "Point",
        "coordinates": [
          97.81195243818817,
          53.49300912896747
        ]
      }
    },
    {
      "type": "Feature",
      "properties": {
        "norad_id": 34274,
        "name": "COSMOS 2251 DEB",
        "group": "cosmos-2251-debris",
        "lat": -40.25217509417039,
        "lon": -109.83940828612053,
        "alt_km": 669.010296123538,
        "timestamp": "2025-12-19T04:59:48.700669+00:00",
        "meta_object_name": "COSMOS 2251 DEB",
        "meta_object_id": "1993-036LU",
        "meta_epoch": "2025-12-18T15:34:15.489696",
        "meta_mean_motion": 14.64850333,
        "meta_eccentricity": 0.00217363,
        "meta_inclination": 74.0045,
        "meta_ra_of_asc_node": 57.1828,
        "meta_arg_of_pericenter": 206.8556,
        "meta_mean_anomaly": 306.3916,
        "meta_ephemeris_type": 0,
        "meta_classification_type": "U",
        "meta_norad_cat_id": 34274,
        "meta_element_set_no": 999,
        "meta_rev_at_epoch": 88762,
        "meta_bstar": 0.00079740872,
        "meta_mean_motion_dot": 4.245e-05,
        "meta_mean_motion_ddot": 0,
        "tle_line1": "1 34274U 93036LU  25352.64879039  .00004245  00000+0  79741-3 0  9999",
        "tle_line2": "2 34274  74.0045  57.1828 0021736 206.8556 306.3916 14.64850333887620"
      },
      "geometry": {
        "type": "Point",
        "coordinates": [
          -109.83940828612053,
          -40.25217509417039
        ]
      }
    },
    {
      "type": "Feature",
      "properties": {
        "norad_id": 34276,
        "name": "COSMOS 2251 DEB",
        "group": "cosmos-2251-debris",
        "lat": -15.773942793365185,
        "lon": 68.38142675784316,
        "alt_km": 715.4051264275577,
        "timestamp": "2025-12-19T04:59:48.700680+00:00",
        "meta_object_name": "COSMOS 2251 DEB",
        "meta_object_id": "1993-036LW",
        "meta_epoch": "2025-12-18T16:35:24.725760",
        "meta_mean_motion": 14.57267095,
        "meta_eccentricity": 0.00224037,
        "meta_inclination": 74.024,
        "meta_ra_of_asc_node": 74.0056,
        "meta_arg_of_pericenter": 220.3015,
        "meta_mean_anomaly": 292.3118,
        "meta_ephemeris_type": 0,
        "meta_classification_type": "U",
        "meta_norad_cat_id": 34276,
        "meta_element_set_no": 999,
        "meta_rev_at_epoch": 88679,
        "meta_bstar": 0.00054339097,
        "meta_mean_motion_dot": 2.437e-05,
        "meta_mean_motion_ddot": 0,
        "tle_line1": "1 34276U 93036LW  25352.69125840  .00002437  00000+0  54339-3 0  9997",
        "tle_line2": "2 34276  74.0240  74.0056 0022403 220.3015 292.3118 14.57267095886797"
      },
      "geometry": {
        "type": "Point",
        "coordinates": [
          68.38142675784316,
          -15.773942793365185
        ]
      }
    },
    {
      "type": "Feature",
      "properties": {
        "norad_id": 34297,
        "name": "COSMOS 2251 DEB",
        "group": "cosmos-2251-debris",
        "lat": -52.672999646920005,
        "lon": 114.38380025519352,
        "alt_km": 779.2962049714179,
        "timestamp": "2025-12-19T04:59:48.700690+00:00",
        "meta_object_name": "COSMOS 2251 DEB",
        "meta_object_id": "1993-036MT",
        "meta_epoch": "2025-12-18T21:30:56.896704",
        "meta_mean_motion": 14.36634393,
        "meta_eccentricity": 0.00175262,
        "meta_inclination": 74.0488,
        "meta_ra_of_asc_node": 272.9271,
        "meta_arg_of_pericenter": 340.5081,
        "meta_mean_anomaly": 83.9334,
        "meta_ephemeris_type": 0,
        "meta_classification_type": "U",
        "meta_norad_cat_id": 34297,
        "meta_element_set_no": 999,
        "meta_rev_at_epoch": 88153,
        "meta_bstar": 0.0001039886,
        "meta_mean_motion_dot": 2.8e-06,
        "meta_mean_motion_ddot": 0,
        "tle_line1": "1 34297U 93036MT  25352.89649186  .00000280  00000+0  10399-3 0  9998",
        "tle_line2": "2 34297  74.0488 272.9271 0017526 340.5081  83.9334 14.36634393881537"
      },
      "geometry": {
        "type": "Point",
        "coordinates": [
          114.38380025519352,
          -52.672999646920005
        ]
      }
    }
  ]
}